{
  "type": "FeatureCollection",
  "features": [
    {
      "type": "Feature",
      "properties": {
        "norad_id": 37441,
        "name": "FENGYUN 1C DEB",
        "group": "fengyun-1c-debris",
        "lat": -34.830846265150555,
        "lon": -168.43026715625282,
        "alt_km": 1349.2369393447489,
        "timestamp": "2025-12-02T23:34:15.805549+00:00",
        "meta_object_name": "FENGYUN 1C DEB",
        "meta_object_id": "1999-025EHK",
        "meta_epoch": "2025-11-24T20:14:47.247360",
        "meta_mean_motion": 13.14168233,
        "meta_eccentricity": 0.0507552,
        "meta_inclination": 99.1471,
        "meta_ra_of_asc_node": 178.0783,
        "meta_arg_of_pericenter": 97.5512,
        "meta_mean_anomaly": 268.3538,
        "meta_ephemeris_type": 0,
        "meta_classification_type": "U",
        "meta_norad_cat_id": 37441,
        "meta_element_set_no": 999,
        "meta_rev_at_epoch": 81937,
        "meta_bstar": 0.0015546,
        "meta_mean_motion_dot": 1.069e-05,
        "meta_mean_motion_ddot": 0,
        "tle_line1": "1 37441U 99025EHK 25328.84360240  .00001069  00000+0  15546-2 0  9999",
        "tle_line2": "2 37441  99.1471 178.0783 0507552  97.5512 268.3538 13.14168233819374"
      },
      "geometry": {
        "type": "Point",
        "coordinates": [
          -168.43026715625282,
          -34.830846265150555
        ]
      }
    },
    {
      "type": "Feature",
      "properties": {
        "norad_id": 37444,
        "name": "FENGYUN 1C DEB",
        "group": "fengyun-1c-debris",
        "lat": 33.77203057131579,
        "lon": -117.08772944738637,
        "alt_km": 833.5768082015229,
        "timestamp": "2025-12-02T23:34:15.805559+00:00",
        "meta_object_name": "FENGYUN 1C DEB",
        "meta_object_id": "1999-025EHN",
        "meta_epoch": "2025-12-02T11:18:21.455424",
        "meta_mean_motion": 14.47933227,
        "meta_eccentricity": 0.024564,
        "meta_inclination": 99.0842,
        "meta_ra_of_asc_node": 56.2208,
        "meta_arg_of_pericenter": 19.7714,
        "meta_mean_anomaly": 341.2798,
        "meta_ephemeris_type": 0,
        "meta_classification_type": "U",
        "meta_norad_cat_id": 37444,
        "meta_element_set_no": 999,
        "meta_rev_at_epoch": 65002,
        "meta_bstar": 0.00074813,
        "meta_mean_motion_dot": 4.002e-05,
        "meta_mean_motion_ddot": 0,
        "tle_line1": "1 37444U 99025EHN 25336.47108166  .00004002  00000+0  74813-3 0  9990",
        "tle_line2": "2 37444  99.0842  56.2208 0245640  19.7714 341.2798 14.47933227650028"
      },
      "geometry": {
        "type": "Point",
        "coordinates": [
          -117.08772944738637,
          33.77203057131579
        ]
      }
    },
    {
      "type": "Feature",
      "properties": {
        "norad_id": 37448,
        "name": "FENGYUN 1C DEB",
        "group": "fengyun-1c-debris",
        "lat": -7.784872517728756,
        "lon": 42.894430564317645,
        "alt_km": 946.4907941028368,
        "timestamp": "2025-12-02T23:34:15.805596+00:00",
        "meta_object_name": "FENGYUN 1C DEB",
        "meta_object_id": "1999-025EHS",
        "meta_epoch": "2025-11-30T09:16:58.939392",
        "meta_mean_motion": 13.86998626,
        "meta_eccentricity": 0.03077333,
        "meta_inclination": 99.3222,
        "meta_ra_of_asc_node": 39.0165,
        "meta_arg_of_pericenter": 91.8476,
        "meta_mean_anomaly": 271.7949,
        "meta_ephemeris_type": 0,
        "meta_classification_type": "U",
        "meta_norad_cat_id": 37448,
        "meta_element_set_no": 999,
        "meta_rev_at_epoch": 62204,
        "meta_bstar": 0.0014041778,
        "meta_mean_motion_dot": 2.347e-05,
        "meta_mean_motion_ddot": 0,
        "tle_line1": "1 37448U 99025EHS 25334.38679328  .00002347  00000+0  14042-2 0  9992",
        "tle_line2": "2 37448  99.3222  39.0165 0307733  91.8476 271.7949 13.86998626622048"
      },
      "geometry": {
        "type": "Point",
        "coordinates": [
          42.894430564317645,
          -7.784872517728756
        ]
      }
    },
    {
      "type": "Feature",
      "properties": {
        "norad_id": 37460,
        "name": "FENGYUN 1C DEB",
        "group": "fengyun-1c-debris",
        "lat": -59.66014406825359,
        "lon": 167.5301620620359,
        "alt_km": 702.4663026377111,
        "timestamp": "2025-12-02T23:34:15.805610+00:00",
        "meta_object_name": "FENGYUN 1C DEB",
        "meta_object_id": "1999-025EJE",
        "meta_epoch": "2025-11-25T11:02:04.286976",
        "meta_mean_motion": 14.47559339,
        "meta_eccentricity": 0.00567916,
        "meta_inclination": 98.3795,
        "meta_ra_of_asc_node": 145.4924,
        "meta_arg_of_pericenter": 342.6942,
        "meta_mean_anomaly": 17.2314,
        "meta_ephemeris_type": 0,
        "meta_classification_type": "U",
        "meta_norad_cat_id": 37460,
        "meta_element_set_no": 999,
        "meta_rev_at_epoch": 82239,
        "meta_bstar": 0.0024923704,
        "meta_mean_motion_dot": 9.323e-05,
        "meta_mean_motion_ddot": 0,
        "tle_line1": "1 37460U 99025EJE 25329.45977184  .00009323  00000+0  24924-2 0  9990",
        "tle_line2": "2 37460  98.3795 145.4924 0056791 342.6942  17.2314 14.47559339822392"
      },
      "geometry": {
        "type": "Point",
        "coordinates": [
          167.5301620620359,
          -59.66014406825359
        ]
      }
    },
    {
      "type": "Feature",
      "properties": {
        "norad_id": 37461,
        "name": "FENGYUN 1C DEB",
        "group": "fengyun-1c-debris",
        "lat": -8.325361527416602,
        "lon": 44.88369224157523,
        "alt_km": 1830.137982086294,
        "timestamp": "2025-12-02T23:34:15.805620+00:00",
        "meta_object_name": "FENGYUN 1C DEB",
        "meta_object_id": "1999-025EJF",
        "meta_epoch": "2025-11-27T22:25:56.122176",
        "meta_mean_motion": 12.7907076,
        "meta_eccentricity": 0.0667413,
        "meta_inclination": 99.8664,
        "meta_ra_of_asc_node": 221.8984,
        "meta_arg_of_pericenter": 359.7811,
        "meta_mean_anomaly": 0.291,
        "meta_ephemeris_type": 0,
        "meta_classification_type": "U",
        "meta_norad_cat_id": 37461,
        "meta_element_set_no": 999,
        "meta_rev_at_epoch": 51845,
        "meta_bstar": 0.0053613,
        "meta_mean_motion_dot": 3.048e-05,
        "meta_mean_motion_ddot": 0,
        "tle_line1": "1 37461U 99025EJF 25331.93467734  .00003048  00000+0  53613-2 0  9997",
        "tle_line2": "2 37461  99.8664 221.8984 0667413 359.7811   0.2910 12.79070760518454"
      },
      "geometry": {
        "type": "Point",
        "coordinates": [
          44.88369224157523,
          -8.325361527416602
        ]
      }
    },
    {
      "type": "Feature",
      "properties": {
        "norad_id": 37464,
        "name": "FENGYUN 1C DEB",
        "group": "fengyun-1c-debris",
        "lat": 69.37057767107662,
        "lon": -138.37583318654404,
        "alt_km": 924.6395813596591,
        "timestamp": "2025-12-02T23:34:15.805632+00:00",
        "meta_object_name": "FENGYUN 1C DEB",
        "meta_object_id": "1999-025EJJ",
        "meta_epoch": "2025-11-26T01:23:41.244000",
        "meta_mean_motion": 13.46785519,
        "meta_eccentricity": 0.04513726,
        "meta_inclination": 102.7057,
        "meta_ra_of_asc_node": 249.6569,
        "meta_arg_of_pericenter": 154.2241,
        "meta_mean_anomaly": 208.2141,
        "meta_ephemeris_type": 0,
        "meta_classification_type": "U",
        "meta_norad_cat_id": 37464,
        "meta_element_set_no": 999,
        "meta_rev_at_epoch": 60697,
        "meta_bstar": 0.0022508683,
        "meta_mean_motion_dot": 2.474e-05,
        "meta_mean_motion_ddot": 0,
        "tle_line1": "1 37464U 99025EJJ 25330.05811625  .00002474  00000+0  22509-2 0  9996",
        "tle_line2": "2 37464 102.7057 249.6569 0451372 154.2241 208.2141 13.46785519606975"
      },
      "geometry": {
        "type": "Point",
        "coordinates": [
          -138.37583318654404,
          69.37057767107662
        ]
      }
    },
    {
      "type": "Feature",
      "properties": {
        "norad_id": 37470,
        "name": "FENGYUN 1C DEB",
        "group": "fengyun-1c-debris",
        "lat": 79.1026304623549,
        "lon": -8.310291527398082,
        "alt_km": 562.0012358398872,
        "timestamp": "2025-12-02T23:34:15.805643+00:00",
        "meta_object_name": "FENGYUN 1C DEB",
        "meta_object_id": "1999-025EJQ",
        "meta_epoch": "2025-12-02T08:43:26.114016",
        "meta_mean_motion": 14.99042865,
        "meta_eccentricity": 0.000536,
        "meta_inclination": 98.6674,
        "meta_ra_of_asc_node": 118.5972,
        "meta_arg_of_pericenter": 185.6749,
        "meta_mean_anomaly": 174.4411,
        "meta_ephemeris_type": 0,
        "meta_classification_type": "U",
        "meta_norad_cat_id": 37470,
        "meta_element_set_no": 999,
        "meta_rev_at_epoch": 65306,
        "meta_bstar": 0.0063565,
        "meta_mean_motion_dot": 0.00077884,
        "meta_mean_motion_ddot": 0,
        "tle_line1": "1 37470U 99025EJQ 25336.36349669  .00077884  00000+0  63565-2 0  9991",
        "tle_line2": "2 37470  98.6674 118.5972 0005360 185.6749 174.4411 14.99042865653060"
      },
      "geometry": {
        "type": "Point",
        "coordinates": [
          -8.310291527398082,
          79.1026304623549
        ]
      }
    }
  ]
}